[{"OBJECT_NAME":"GOES 14","OBJECT_ID":"2009-033A","EPOCH":"2026-04-04T04:35:38.555808","MEAN_MOTION":1.00111592,"ECCENTRICITY":0.00018234,"INCLINATION":1.4992,"RA_OF_ASC_NODE":83.9394,"ARG_OF_PERICENTER":295.6803,"MEAN_ANOMALY":65.207,"EPHEMERIS_TYPE":0,"CLASSIFICATION_TYPE":"U","NORAD_CAT_ID":35491,"ELEMENT_SET_NO":999,"REV_AT_EPOCH":584,"BSTAR":0,"MEAN_MOTION_DOT":4.9e-7,"MEAN_MOTION_DDOT":0},{"OBJECT_NAME":"FM-5","OBJECT_ID":"2009-034A","EPOCH":"2026-04-03T22:40:46.238304","MEAN_MOTION":1.0027303,"ECCENTRICITY":1.752e-5,"INCLINATION":0.0201,"RA_OF_ASC_NODE":254.8145,"ARG_OF_PERICENTER":18.3757,"MEAN_ANOMALY":173.109,"EPHEMERIS_TYPE":0,"CLASSIFICATION_TYPE":"U","NORAD_CAT_ID":35493,"ELEMENT_SET_NO":999,"REV_AT_EPOCH":4589,"BSTAR":0,"MEAN_MOTION_DOT":-2.02e-6,"MEAN_MOTION_DDOT":0},{"OBJECT_NAME":"TERRESTAR-1","OBJECT_ID":"2009-035A","EPOCH":"2026-04-04T12:30:32.829120","MEAN_MOTION":1.0027342,"ECCENTRICITY":0.00028992,"INCLINATION":5.1234,"RA_OF_ASC_NODE":48.8032,"ARG_OF_PERICENTER":324.7404,"MEAN_ANOMALY":255.9471,"EPHEMERIS_TYPE":0,"CLASSIFICATION_TYPE":"U","NORAD_CAT_ID":35496,"ELEMENT_SET_NO":999,"REV_AT_EPOCH":6139,"BSTAR":0,"MEAN_MOTION_DOT":-5.5e-7,"MEAN_MOTION_DDOT":0},{"OBJECT_NAME":"ASIASAT 5","OBJECT_ID":"2009-042A","EPOCH":"2026-04-04T01:17:08.102400","MEAN_MOTION":1.00271213,"ECCENTRICITY":0.0001699,"INCLINATION":0.0123,"RA_OF_ASC_NODE":206.9627,"ARG_OF_PERICENTER":161.1062,"MEAN_ANOMALY":304.1041,"EPHEMERIS_TYPE":0,"CLASSIFICATION_TYPE":"U","NORAD_CAT_ID":35696,"ELEMENT_SET_NO":999,"REV_AT_EPOCH":6096,"BSTAR":0,"MEAN_MOTION_DOT":-3.08e-6,"MEAN_MOTION_DDOT":0},{"OBJECT_NAME":"JCSAT-12 (JCSAT-RA)","OBJECT_ID":"2009-044A","EPOCH":"2026-04-04T06:08:38.620320","MEAN_MOTION":1.00268494,"ECCENTRICITY":8.73e-5,"INCLINATION":0.0132,"RA_OF_ASC_NODE":202.7706,"ARG_OF_PERICENTER":160.2178,"MEAN_ANOMALY":53.7868,"EPHEMERIS_TYPE":0,"CLASSIFICATION_TYPE":"U","NORAD_CAT_ID":35755,"ELEMENT_SET_NO":999,"REV_AT_EPOCH":6086,"BSTAR":0,"MEAN_MOTION_DOT":0,"MEAN_MOTION_DDOT":0},{"OBJECT_NAME":"OPTUS D3","OBJECT_ID":"2009-044B","EPOCH":"2026-04-03T20:24:56.079648","MEAN_MOTION":1.00272629,"ECCENTRICITY":0.00032172,"INCLINATION":0.8654,"RA_OF_ASC_NODE":270.0015,"ARG_OF_PERICENTER":101.7046,"MEAN_ANOMALY":282.8172,"EPHEMERIS_TYPE":0,"CLASSIFICATION_TYPE":"U","NORAD_CAT_ID":35756,"ELEMENT_SET_NO":999,"REV_AT_EPOCH":6082,"BSTAR":0,"MEAN_MOTION_DOT":-1.48e-6,"MEAN_MOTION_DDOT":0},{"OBJECT_NAME":"NIMIQ 5","OBJECT_ID":"2009-050A","EPOCH":"2026-04-04T05:35:43.299456","MEAN_MOTION":1.00272565,"ECCENTRICITY":0.00029201,"INCLINATION":0.0445,"RA_OF_ASC_NODE":83.1771,"ARG_OF_PERICENTER":295.0337,"MEAN_ANOMALY":185.5675,"EPHEMERIS_TYPE":0,"CLASSIFICATION_TYPE":"U","NORAD_CAT_ID":35873,"ELEMENT_SET_NO":999,"REV_AT_EPOCH":6060,"BSTAR":0,"MEAN_MOTION_DOT":-2.57e-6,"MEAN_MOTION_DDOT":0},{"OBJECT_NAME":"AMAZONAS 2","OBJECT_ID":"2009-054A","EPOCH":"2026-04-04T05:39:05.476320","MEAN_MOTION":1.00271963,"ECCENTRICITY":0.00035267,"INCLINATION":1.6231,"RA_OF_ASC_NODE":83.9836,"ARG_OF_PERICENTER":292.3487,"MEAN_ANOMALY":200.2072,"EPHEMERIS_TYPE":0,"CLASSIFICATION_TYPE":"U","NORAD_CAT_ID":35942,"ELEMENT_SET_NO":999,"REV_AT_EPOCH":6044,"BSTAR":0,"MEAN_MOTION_DOT":-2.82e-6,"MEAN_MOTION_DDOT":0},{"OBJECT_NAME":"COMSATBW-1","OBJECT_ID":"2009-054B","EPOCH":"2026-04-04T04:31:41.940768","MEAN_MOTION":1.00271952,"ECCENTRICITY":0.00038445,"INCLINATION":0.0615,"RA_OF_ASC_NODE":80.4032,"ARG_OF_PERICENTER":309.2344,"MEAN_ANOMALY":293.7853,"EPHEMERIS_TYPE":0,"CLASSIFICATION_TYPE":"U","NORAD_CAT_ID":35943,"ELEMENT_SET_NO":999,"REV_AT_EPOCH":6056,"BSTAR":0,"MEAN_MOTION_DOT":2.4e-7,"MEAN_MOTION_DDOT":0},{"OBJECT_NAME":"NSS-12","OBJECT_ID":"2009-058A","EPOCH":"2026-04-04T04:30:04.595616","MEAN_MOTION":1.00271262,"ECCENTRICITY":0.0005061,"INCLINATION":0.073,"RA_OF_ASC_NODE":61.1201,"ARG_OF_PERICENTER":297.356,"MEAN_ANOMALY":318.548,"EPHEMERIS_TYPE":0,"CLASSIFICATION_TYPE":"U","NORAD_CAT_ID":36032,"ELEMENT_SET_NO":999,"REV_AT_EPOCH":6017,"BSTAR":0,"MEAN_MOTION_DOT":7.1e-7,"MEAN_MOTION_DDOT":0},{"OBJECT_NAME":"THOR 6","OBJECT_ID":"2009-058B","EPOCH":"2026-04-04T04:13:28.687872","MEAN_MOTION":1.00271058,"ECCENTRICITY":0.00020373,"INCLINATION":0.0102,"RA_OF_ASC_NODE":213.8522,"ARG_OF_PERICENTER":178.6208,"MEAN_ANOMALY":222.5478,"EPHEMERIS_TYPE":0,"CLASSIFICATION_TYPE":"U","NORAD_CAT_ID":36033,"ELEMENT_SET_NO":999,"REV_AT_EPOCH":6026,"BSTAR":0,"MEAN_MOTION_DOT":-1.1e-7,"MEAN_MOTION_DDOT":0},{"OBJECT_NAME":"INTELSAT 14 (IS-14)","OBJECT_ID":"2009-064A","EPOCH":"2026-04-04T05:27:38.799360","MEAN_MOTION":1.00272903,"ECCENTRICITY":0.00025583,"INCLINATION":0.0433,"RA_OF_ASC_NODE":73.1355,"ARG_OF_PERICENTER":308.7043,"MEAN_ANOMALY":207.6211,"EPHEMERIS_TYPE":0,"CLASSIFICATION_TYPE":"U","NORAD_CAT_ID":36097,"ELEMENT_SET_NO":999,"REV_AT_EPOCH":5986,"BSTAR":0,"MEAN_MOTION_DOT":-2.74e-6,"MEAN_MOTION_DDOT":0},{"OBJECT_NAME":"EUTELSAT 36B","OBJECT_ID":"2009-065A","EPOCH":"2026-04-04T05:50:38.728320","MEAN_MOTION":1.00273278,"ECCENTRICITY":0.00059865,"INCLINATION":0.3052,"RA_OF_ASC_NODE":78.9592,"ARG_OF_PERICENTER":298.9146,"MEAN_ANOMALY":312.827,"EPHEMERIS_TYPE":0,"CLASSIFICATION_TYPE":"U","NORAD_CAT_ID":36101,"ELEMENT_SET_NO":999,"REV_AT_EPOCH":5996,"BSTAR":0,"MEAN_MOTION_DOT":1.12e-6,"MEAN_MOTION_DDOT":0},{"OBJECT_NAME":"INTELSAT 15 (IS-15)","OBJECT_ID":"2009-067A","EPOCH":"2026-04-04T05:25:14.591712","MEAN_MOTION":1.00269977,"ECCENTRICITY":0.00024916,"INCLINATION":0.0189,"RA_OF_ASC_NODE":222.0014,"ARG_OF_PERICENTER":167.4493,"MEAN_ANOMALY":329.5559,"EPHEMERIS_TYPE":0,"CLASSIFICATION_TYPE":"U","NORAD_CAT_ID":36106,"ELEMENT_SET_NO":999,"REV_AT_EPOCH":4048,"BSTAR":0,"MEAN_MOTION_DOT":0,"MEAN_MOTION_DDOT":0},{"OBJECT_NAME":"WGS F3 (USA 211)","OBJECT_ID":"2009-068A","EPOCH":"2026-04-03T15:37:58.603872","MEAN_MOTION":1.00270885,"ECCENTRICITY":6.089e-5,"INCLINATION":0.4086,"RA_OF_ASC_NODE":85.5983,"ARG_OF_PERICENTER":346.7211,"MEAN_ANOMALY":224.1285,"EPHEMERIS_TYPE":0,"CLASSIFICATION_TYPE":"U","NORAD_CAT_ID":36108,"ELEMENT_SET_NO":999,"REV_AT_EPOCH":4584,"BSTAR":0,"MEAN_MOTION_DOT":6.3e-7,"MEAN_MOTION_DDOT":0},{"OBJECT_NAME":"DIRECTV 12","OBJECT_ID":"2009-075A","EPOCH":"2026-04-04T00:19:06.166848","MEAN_MOTION":1.00272211,"ECCENTRICITY":4.644e-5,"INCLINATION":0.0124,"RA_OF_ASC_NODE":329.7374,"ARG_OF_PERICENTER":71.5214,"MEAN_ANOMALY":53.1228,"EPHEMERIS_TYPE":0,"CLASSIFICATION_TYPE":"U","NORAD_CAT_ID":36131,"ELEMENT_SET_NO":999,"REV_AT_EPOCH":4581,"BSTAR":0,"MEAN_MOTION_DOT":-1.05e-6,"MEAN_MOTION_DDOT":0},{"OBJECT_NAME":"BEIDOU-2 G1","OBJECT_ID":"2010-001A","EPOCH":"2026-04-04T04:53:54.810240","MEAN_MOTION":1.00270807,"ECCENTRICITY":0.00042178,"INCLINATION":4.1211,"RA_OF_ASC_NODE":60.6047,"ARG_OF_PERICENTER":292.6054,"MEAN_ANOMALY":53.261,"EPHEMERIS_TYPE":0,"CLASSIFICATION_TYPE":"U","NORAD_CAT_ID":36287,"ELEMENT_SET_NO":999,"REV_AT_EPOCH":5942,"BSTAR":0,"MEAN_MOTION_DOT":-2.79e-6,"MEAN_MOTION_DDOT":0}]
